NORAD_CAT_ID,OBJECT_NAME,OBJECT_TYPE,EPOCH,MEAN_MOTION,ECCENTRICITY,INCLINATION,RA_OF_ASC_NODE,ARG_OF_PERICENTER,MEAN_ANOMALY,BSTAR,MEAN_MOTION_DOT,MEAN_MOTION_DDOT,TLE_LINE0,TLE_LINE1,TLE_LINE2,SEMIMAJOR_AXIS,PERIOD,APOGEE,PERIGEE,DECAYED
53561.0,STARLINK-4563,PAYLOAD,2024-02-12 17:11:27,15.08837669,0.0001378,53.2165,217.8162,99.4146,260.7002,5.2739e-05,5.51e-06,0.0,0 STARLINK-4563,1 53561U 22101AL  24043.71628791  .00000551  00000-0  52739-4 0  9991,2 53561  53.2165 217.8162 0001378  99.4146 260.7002 15.08837669 82182,6917.888,95.438,540.706,538.799,0.0
53561.0,STARLINK-4563,PAYLOAD,2024-02-13 18:37:35,15.08863252,0.0001351,53.2159,213.0589,87.9686,272.146,0.00022166,3.244e-05,0.0,0 STARLINK-4563,1 53561U 22101AL  24044.77610536  .00003244  00000-0  22166-3 0  9998,2 53561  53.2159 213.0589 0001351  87.9686 272.1460 15.08863252 82348,6917.809,95.436,540.609,538.74,0.0
53561.0,STARLINK-4563,PAYLOAD,2024-02-13 20:12:58,15.0886477,0.0001422,53.2159,212.7601,84.9589,275.1565,0.0002335,3.433e-05,0.0,0 STARLINK-4563,1 53561U 22101AL  24044.84234337  .00003433  00000-0  23350-3 0  9993,2 53561  53.2159 212.7601 0001422  84.9589 275.1565 15.08864770 82353,6917.805,95.436,540.653,538.686,0.0
53561.0,STARLINK-4563,PAYLOAD,2024-02-14 04:09:56,15.0883407,0.0001358,53.2164,211.2737,92.2952,267.8196,1.3524e-05,-7.3e-07,0.0,0 STARLINK-4563,1 53561U 22101AL  24045.17356709 -.00000073  00000-0  13524-4 0  9999,2 53561  53.2164 211.2737 0001358  92.2952 267.8196 15.08834070 82401,6917.899,95.438,540.703,538.824,0.0
53561.0,STARLINK-4563,PAYLOAD,2024-02-14 16:53:02,15.08819782,0.0001197,53.2156,208.8939,92.9811,267.1318,-0.00016502,-2.912e-05,0.0,0 STARLINK-4563,1 53561U 22101AL  24045.70350551 -.00002912  00000-0 -16502-3 0  9990,2 53561  53.2156 208.8939 0001197  92.9811 267.1318 15.08819782 82480,6917.942,95.439,540.635,538.979,0.0
53561.0,STARLINK-4563,PAYLOAD,2024-02-14 20:03:48,15.08825936,0.0001439,53.2163,208.3001,96.3261,263.7895,-9.475e-05,-1.795e-05,0.0,0 STARLINK-4563,1 53561U 22101AL  24045.83598125 -.00001795  00000-0 -94750-4 0  9995,2 53561  53.2163 208.3001 0001439  96.3261 263.7895 15.08825936 82502,6917.923,95.438,540.784,538.793,0.0
53561.0,STARLINK-4563,PAYLOAD,2024-02-15 04:00:43,15.0883623,0.0001504,53.217,206.815,86.4734,273.6431,-5.5165e-05,-1.166e-05,0.0,0 STARLINK-4563,1 53561U 22101AL  24046.16717572 -.00001166  00000-0 -55165-4 0  9990,2 53561  53.2170 206.8150 0001504  86.4734 273.6431 15.08836230 82556,6917.892,95.438,540.797,538.716,0.0
53561.0,STARLINK-4563,PAYLOAD,2024-02-15 10:22:16,15.08848544,0.0001468,53.2168,205.6238,97.4343,262.6816,-0.0001337,-2.416e-05,0.0,0 STARLINK-4563,1 53561U 22101AL  24046.43213169 -.00002416  00000-0 -13370-3 0  9993,2 53561  53.2168 205.6238 0001468  97.4343 262.6816 15.08848544 82594,6917.854,95.437,540.735,538.704,0.0
53561.0,STARLINK-4563,PAYLOAD,2024-02-15 16:43:47,15.08856914,0.0001465,53.2163,204.4349,96.1825,263.9334,-3.7617e-05,-8.87e-06,0.0,0 STARLINK-4563,1 53561U 22101AL  24046.69708215 -.00000887  00000-0 -37617-4 0  9993,2 53561  53.2163 204.4349 0001465  96.1825 263.9334 15.08856914 82631,6917.829,95.436,540.707,538.68,0.0
53561.0,STARLINK-4563,PAYLOAD,2024-02-16 03:51:30,15.08849758,0.0001309,53.2145,202.3538,96.5397,263.5744,-0.00010896,-2.022e-05,0.0,0 STARLINK-4563,1 53561U 22101AL  24047.16076572 -.00002022  00000-0 -10896-3 0  9992,2 53561  53.2145 202.3538 0001309  96.5397 263.5744 15.08849758 82700,6917.851,95.437,540.621,538.81,0.0
53561.0,STARLINK-4563,PAYLOAD,2024-02-16 19:45:22,15.08833068,0.0001567,53.2179,199.3778,105.2372,254.8794,0.00016025,2.263e-05,0.0,0 STARLINK-4563,1 53561U 22101AL  24047.82317725  .00002263  00000-0  16025-3 0  9998,2 53561  53.2179 199.3778 0001567 105.2372 254.8794 15.08833068 82801,6917.902,95.438,540.851,538.683,0.0
53561.0,STARLINK-4563,PAYLOAD,2024-02-17 14:49:59,15.08848202,0.0001835,53.2174,195.8102,99.898,260.222,6.8246e-05,7.98e-06,0.0,0 STARLINK-4563,1 53561U 22101AL  24048.61805232  .00000798  00000-0  68246-4 0  9995,2 53561  53.2174 195.8102 0001835  99.8980 260.2220 15.08848202 82923,6917.855,95.437,540.99,538.451,0.0
53561.0,STARLINK-4563,PAYLOAD,2024-02-17 19:36:08,15.0885548,0.0001588,53.2179,194.9175,97.4171,262.7002,9.4138e-05,1.211e-05,0.0,0 STARLINK-4563,1 53561U 22101AL  24048.81676630  .00001211  00000-0  94138-4 0  9995,2 53561  53.2179 194.9175 0001588  97.4171 262.7002 15.08855480 82953,6917.833,95.437,540.797,538.6,0.0
53561.0,STARLINK-4563,PAYLOAD,2024-02-18 14:40:46,15.08841808,0.0001404,53.2158,191.3457,89.9792,270.1361,0.00012668,1.729e-05,0.0,0 STARLINK-4563,1 53561U 22101AL  24049.61165499  .00001729  00000-0  12668-3 0  9991,2 53561  53.2158 191.3457 0001404  89.9792 270.1361 15.08841808 83070,6917.875,95.437,540.711,538.769,0.0
53561.0,STARLINK-4563,PAYLOAD,2024-02-18 16:16:09,15.08846211,0.0001397,53.2159,191.0542,87.5557,272.5595,0.00019219,2.773e-05,0.0,0 STARLINK-4563,1 53561U 22101AL  24049.67789303  .00002773  00000-0  19219-3 0  9992,2 53561  53.2159 191.0542 0001397  87.5557 272.5595 15.08846211 83086,6917.861,95.437,540.693,538.76,0.0
53561.0,STARLINK-4563,PAYLOAD,2024-02-19 09:45:24,15.08837703,0.0001483,53.2172,187.7842,89.5504,270.5658,-0.00016254,-2.874e-05,0.0,0 STARLINK-4563,1 53561U 22101AL  24050.40653620 -.00002874  00000-0 -16254-3 0  9997,2 53561  53.2172 187.7842 0001483  89.5504 270.5658 15.08837703 83192,6917.887,95.438,540.778,538.726,0.0
53561.0,STARLINK-4563,PAYLOAD,2024-02-19 14:31:34,15.08838239,0.0001427,53.2174,186.895,93.8286,266.2869,-9.6873e-05,-1.829e-05,0.0,0 STARLINK-4563,1 53561U 22101AL  24050.60525747 -.00001829  00000-0 -96873-4 0  9992,2 53561  53.2174 186.8950 0001427  93.8286 266.2869 15.08838239 83222,6917.886,95.438,540.738,538.764,0.0
53561.0,STARLINK-4563,PAYLOAD,2024-02-19 16:06:57,15.08839106,0.0001464,53.2174,186.5972,94.8909,265.225,-9.3134e-05,-1.77e-05,0.0,0 STARLINK-4563,1 53561U 22101AL  24050.67149683 -.00001770  00000-0 -93134-4 0  9992,2 53561  53.2174 186.5972 0001464  94.8909 265.2250 15.08839106 83235,6917.883,95.438,540.761,538.735,0.0
53561.0,STARLINK-4563,PAYLOAD,2024-02-20 14:22:21,15.08840842,0.000151,53.2186,182.4349,113.6318,246.4833,-3.5274e-05,-8.49e-06,0.0,0 STARLINK-4563,1 53561U 22101AL  24051.59886267 -.00000849  00000-0 -35274-4 0  9997,2 53561  53.2186 182.4349 0001510 113.6318 246.4833 15.08840842 83379,6917.878,95.438,540.787,538.698,0.0
53561.0,STARLINK-4563,PAYLOAD,2024-02-20 19:08:30,15.08849061,0.0001062,53.2162,181.5365,84.4024,275.7089,7.1323e-05,8.48e-06,0.0,0 STARLINK-4563,1 53561U 22101AL  24051.79757322  .00000848  00000-0  71323-4 0  9990,2 53561  53.2162 181.5365 0001062  84.4024 275.7089 15.08849061 83406,6917.853,95.437,540.452,538.983,0.0
53561.0,STARLINK-4563,PAYLOAD,2024-02-21 14:13:08,15.08840221,0.0001464,53.2174,177.9702,94.7894,265.3265,0.00010192,1.334e-05,0.0,0 STARLINK-4563,1 53561U 22101AL  24052.59246016  .00001334  00000-0  10192-3 0  9999,2 53561  53.2174 177.9702 0001464  94.7894 265.3265 15.08840221 83521,6917.88,95.438,540.757,538.732,0.0
53561.0,STARLINK-4563,PAYLOAD,2024-02-21 15:48:31,15.08843268,0.0001405,53.217,177.6707,102.4412,257.6737,0.00013681,1.89e-05,0.0,0 STARLINK-4563,1 53561U 22101AL  24052.65869660  .00001890  00000-0  13681-3 0  9995,2 53561  53.2170 177.6707 0001405 102.4412 257.6737 15.08843268 83530,6917.87,95.437,540.707,538.763,0.0
53561.0,STARLINK-4563,PAYLOAD,2024-02-22 12:28:33,15.08835794,0.0001861,53.2181,173.8074,62.2581,297.86,9.6373e-05,1.246e-05,0.0,0 STARLINK-4563,1 53561U 22101AL  24053.51982642  .00001246  00000-0  96373-4 0  9992,2 53561  53.2181 173.8074 0001861  62.2581 297.8600 15.08835794 83667,6917.893,95.438,541.046,538.471,0.0
53561.0,STARLINK-4563,PAYLOAD,2024-02-22 14:03:55,15.08842701,0.0001273,53.217,173.5101,91.505,268.6088,5.4531e-05,5.8e-06,0.0,0 STARLINK-4563,1 53561U 22101AL  24053.58606116  .00000580  00000-0  54531-4 0  9998,2 53561  53.2170 173.5101 0001273  91.5050 268.6088 15.08842701 83679,6917.872,95.437,540.618,538.856,0.0
53561.0,STARLINK-4563,PAYLOAD,2024-02-22 15:39:18,15.08844172,0.0001256,53.2168,173.2127,90.0628,270.0508,6.6436e-05,7.7e-06,0.0,0 STARLINK-4563,1 53561U 22101AL  24053.65229944  .00000770  00000-0  66436-4 0  9994,2 53561  53.2168 173.2127 0001256  90.0628 270.0508 15.08844172 83686,6917.868,95.437,540.602,538.864,0.0
53561.0,STARLINK-4563,PAYLOAD,2024-02-23 12:19:20,15.08840514,0.000134,53.2165,169.3488,96.7403,263.3741,-8.6849e-05,-1.67e-05,0.0,0 STARLINK-4563,1 53561U 22101AL  24054.51342745 -.00001670  00000-0 -86849-4 0  9997,2 53561  53.2165 169.3488 0001340  96.7403 263.3741 15.08840514 83812,6917.879,95.438,540.671,538.817,0.0
53561.0,STARLINK-4563,PAYLOAD,2024-02-23 13:54:43,15.08840351,0.0001767,53.2184,169.0507,66.6142,293.5036,9.2226e-06,-1.41e-06,0.0,0 STARLINK-4563,1 53561U 22101AL  24054.57966707 -.00000141  00000-0  92226-5 0  9991,2 53561  53.2184 169.0507 0001767  66.6142 293.5036 15.08840351 83823,6917.879,95.438,540.967,538.522,0.0
53561.0,STARLINK-4563,PAYLOAD,2024-02-24 12:10:06,15.08844466,0.0001421,53.2169,164.8864,90.8643,269.2512,6.9864e-05,8.24e-06,0.0,0 STARLINK-4563,1 53561U 22101AL  24055.50702170  .00000824  00000-0  69864-4 0  9995,2 53561  53.2169 164.8864 0001421  90.8643 269.2512 15.08844466 83962,6917.867,95.437,540.715,538.749,0.0
53561.0,STARLINK-4563,PAYLOAD,2024-02-24 13:45:29,15.08848364,0.0001375,53.2172,164.5892,89.4627,270.6523,9.4761e-05,1.221e-05,0.0,0 STARLINK-4563,1 53561U 22101AL  24055.57325879  .00001221  00000-0  94761-4 0  9995,2 53561  53.2172 164.5892 0001375  89.4627 270.6523 15.08848364 83978,6917.855,95.437,540.671,538.769,0.0
53561.0,STARLINK-4563,PAYLOAD,2024-02-24 16:56:15,15.08850736,0.0001393,53.2172,163.9946,88.3836,271.7315,8.0813e-05,9.99e-06,0.0,0 STARLINK-4563,1 53561U 22101AL  24055.70573752  .00000999  00000-0  80813-4 0  9999,2 53561  53.2172 163.9946 0001393  88.3836 271.7315 15.08850736 83990,6917.848,95.437,540.676,538.749,0.0
